start=new Date('2023-06-16T00:00:00.000Z').valueOf();
sats=[{"COUNTRY_CODE":"US","MEAN_MOTION_DDOT":"0.0000000000000","RCS_SIZE":"LARGE","NORAD_CAT_ID":"45751","EPOCH":"2023-06-15T17:00:00.192384","FILE":"3934071","LAUNCH_DATE":"2020-06-13","DECAY_DATE":null,"MEAN_ELEMENT_THEORY":"SGP4","MEAN_ANOMALY":"244.2193","ELEMENT_SET_NO":"999","ARG_OF_PERICENTER":"115.8912","PERIAPSIS":"546.419","REV_AT_EPOCH":"16606","TLE_LINE1":"1 45751U 20038X   23166.70833556  .00012423  00000-0  85134-3 0  9996","TIME_SYSTEM":"UTC","REF_FRAME":"TEME","INCLINATION":"53.0548","MEAN_MOTION_DOT":"0.00012423","PERIOD":"95.592","GP_ID":"234017364","OBJECT_ID":"2020-038X","OBJECT_NAME":"STARLINK-1464","ECCENTRICITY":"0.00011280","CLASSIFICATION_TYPE":"U","SITE":"AFETR","APOAPSIS":"547.981","CENTER_NAME":"EARTH","SEMIMAJOR_AXIS":"6925.335","OBJECT_TYPE":"PAYLOAD","BSTAR":"0.00085134000000","RA_OF_ASC_NODE":"16.7264","MEAN_MOTION":"15.06404419","EPHEMERIS_TYPE":"0","TLE_LINE2":"2 45751  53.0548  16.7264 0001128 115.8912 244.2193 15.06404419166062"},{"CENTER_NAME":"EARTH","APOAPSIS":"547.984","SITE":"AFETR","TLE_LINE2":"2 45753  53.0547  17.2800 0001138  78.9789 281.1328 15.06405792166040","EPHEMERIS_TYPE":"0","MEAN_MOTION":"15.06405792","RA_OF_ASC_NODE":"17.2800","OBJECT_TYPE":"PAYLOAD","BSTAR":"0.00123120000000","SEMIMAJOR_AXIS":"6925.331","OBJECT_ID":"2020-038Z","GP_ID":"234018113","PERIOD":"95.592","INCLINATION":"53.0547","MEAN_MOTION_DOT":"0.00018108","CLASSIFICATION_TYPE":"U","ECCENTRICITY":"0.00011380","OBJECT_NAME":"STARLINK-1476","REV_AT_EPOCH":"16604","PERIAPSIS":"546.408","ARG_OF_PERICENTER":"78.9789","ELEMENT_SET_NO":"999","REF_FRAME":"TEME","TIME_SYSTEM":"UTC","TLE_LINE1":"1 45753U 20038Z   23166.58670431  .00018108  00000-0  12312-2 0  9998","NORAD_CAT_ID":"45753","MEAN_MOTION_DDOT":"0.0000000000000","RCS_SIZE":"LARGE","COUNTRY_CODE":"US","MEAN_ELEMENT_THEORY":"SGP4","MEAN_ANOMALY":"281.1328","DECAY_DATE":null,"LAUNCH_DATE":"2020-06-13","FILE":"3934071","EPOCH":"2023-06-15T14:04:51.252384"},{"COUNTRY_CODE":"US","NORAD_CAT_ID":"45754","MEAN_MOTION_DDOT":"0.0000000000000","RCS_SIZE":"LARGE","LAUNCH_DATE":"2020-06-13","DECAY_DATE":null,"FILE":"3934071","EPOCH":"2023-06-15T14:10:09.496416","MEAN_ELEMENT_THEORY":"SGP4","MEAN_ANOMALY":"268.8222","ARG_OF_PERICENTER":"91.2860","ELEMENT_SET_NO":"999","REV_AT_EPOCH":"16604","PERIAPSIS":"546.637","TIME_SYSTEM":"UTC","TLE_LINE1":"1 45754U 20038AA  23166.59038769  .00013910  00000-0  95074-3 0  9995","REF_FRAME":"TEME","PERIOD":"95.592","MEAN_MOTION_DOT":"0.00013910","INCLINATION":"53.0552","OBJECT_ID":"2020-038AA","GP_ID":"234018353","CLASSIFICATION_TYPE":"U","ECCENTRICITY":"0.00008120","OBJECT_NAME":"STARLINK-1477","CENTER_NAME":"EARTH","APOAPSIS":"547.762","SITE":"AFETR","BSTAR":"0.00095074000000","OBJECT_TYPE":"PAYLOAD","SEMIMAJOR_AXIS":"6925.334","TLE_LINE2":"2 45754  53.0552  17.2565 0000812  91.2860 268.8222 15.06404626166041","EPHEMERIS_TYPE":"0","MEAN_MOTION":"15.06404626","RA_OF_ASC_NODE":"17.2565"},{"TIME_SYSTEM":"UTC","TLE_LINE1":"1 45755U 20038AB  23166.74150788  .00018711  00000-0  12716-2 0  9994","REF_FRAME":"TEME","ELEMENT_SET_NO":"999","ARG_OF_PERICENTER":"76.9515","PERIAPSIS":"546.081","REV_AT_EPOCH":"16605","DECAY_DATE":null,"LAUNCH_DATE":"2020-06-13","EPOCH":"2023-06-15T17:47:46.280832","FILE":"3934071","MEAN_ANOMALY":"283.1655","MEAN_ELEMENT_THEORY":"SGP4","COUNTRY_CODE":"US","NORAD_CAT_ID":"45755","MEAN_MOTION_DDOT":"0.0000000000000","RCS_SIZE":"LARGE","BSTAR":"0.00127160000000","OBJECT_TYPE":"PAYLOAD","SEMIMAJOR_AXIS":"6925.340","EPHEMERIS_TYPE":"0","TLE_LINE2":"2 45755  53.0547  16.5850 0001623  76.9515 283.1655 15.06402636166053","RA_OF_ASC_NODE":"16.5850","MEAN_MOTION":"15.06402636","APOAPSIS":"548.329","CENTER_NAME":"EARTH","SITE":"AFETR","CLASSIFICATION_TYPE":"U","OBJECT_NAME":"STARLINK-1478","ECCENTRICITY":"0.00016230","PERIOD":"95.592","INCLINATION":"53.0547","MEAN_MOTION_DOT":"0.00018711","OBJECT_ID":"2020-038AB","GP_ID":"234016615"},{"FILE":"3934071","EPOCH":"2023-06-15T17:41:06.228096","LAUNCH_DATE":"2020-06-13","DECAY_DATE":null,"MEAN_ANOMALY":"287.3973","MEAN_ELEMENT_THEORY":"SGP4","COUNTRY_CODE":"US","RCS_SIZE":"LARGE","MEAN_MOTION_DDOT":"0.0000000000000","NORAD_CAT_ID":"45756","TLE_LINE1":"1 45756U 20038AC  23166.73687764  .00013775  00000-0  94159-3 0  9990","TIME_SYSTEM":"UTC","REF_FRAME":"TEME","ELEMENT_SET_NO":"999","ARG_OF_PERICENTER":"72.7148","PERIAPSIS":"546.347","REV_AT_EPOCH":"16605","ECCENTRICITY":"0.00012110","OBJECT_NAME":"STARLINK-1484","CLASSIFICATION_TYPE":"U","MEAN_MOTION_DOT":"0.00013775","INCLINATION":"53.0554","PERIOD":"95.592","GP_ID":"234016865","OBJECT_ID":"2020-038AC","SEMIMAJOR_AXIS":"6925.320","OBJECT_TYPE":"PAYLOAD","BSTAR":"0.00094159000000","RA_OF_ASC_NODE":"16.5905","MEAN_MOTION":"15.06409194","TLE_LINE2":"2 45756  53.0554  16.5905 0001211  72.7148 287.3973 15.06409194166057","EPHEMERIS_TYPE":"0","SITE":"AFETR","APOAPSIS":"548.024","CENTER_NAME":"EARTH"},{"FILE":"3934071","EPOCH":"2023-06-15T17:29:32.905248","LAUNCH_DATE":"2020-06-13","DECAY_DATE":null,"MEAN_ELEMENT_THEORY":"SGP4","MEAN_ANOMALY":"254.5064","COUNTRY_CODE":"US","RCS_SIZE":"LARGE","MEAN_MOTION_DDOT":"0.0000000000000","NORAD_CAT_ID":"45757","TLE_LINE1":"1 45757U 20038AD  23166.72885307  .00028910  00000-0  14721-2 0  9996","TIME_SYSTEM":"UTC","REF_FRAME":"TEME","ARG_OF_PERICENTER":"105.6383","ELEMENT_SET_NO":"999","REV_AT_EPOCH":"16613","PERIAPSIS":"513.315","ECCENTRICITY":"0.00041130","OBJECT_NAME":"STARLINK-1486","CLASSIFICATION_TYPE":"U","INCLINATION":"53.0556","MEAN_MOTION_DOT":"0.00028910","PERIOD":"94.950","GP_ID":"234017614","OBJECT_ID":"2020-038AD","SEMIMAJOR_AXIS":"6894.286","BSTAR":"0.00147210000000","OBJECT_TYPE":"PAYLOAD","MEAN_MOTION":"15.16592337","RA_OF_ASC_NODE":"10.7905","EPHEMERIS_TYPE":"0","TLE_LINE2":"2 45757  53.0556  10.7905 0004113 105.6383 254.5064 15.16592337166136","SITE":"AFETR","APOAPSIS":"518.986","CENTER_NAME":"EARTH"},{"TIME_SYSTEM":"UTC","TLE_LINE1":"1 45758U 20038AE  23166.77343046  .00032154  00000-0  15820-2 0  9997","REF_FRAME":"TEME","ELEMENT_SET_NO":"999","ARG_OF_PERICENTER":"122.3872","PERIAPSIS":"509.933","REV_AT_EPOCH":"16615","LAUNCH_DATE":"2020-06-13","DECAY_DATE":null,"FILE":"3934071","EPOCH":"2023-06-15T18:33:44.391744","MEAN_ANOMALY":"237.7506","MEAN_ELEMENT_THEORY":"SGP4","COUNTRY_CODE":"US","NORAD_CAT_ID":"45758","RCS_SIZE":"LARGE","MEAN_MOTION_DDOT":"0.0000000000000","BSTAR":"0.00158200000000","OBJECT_TYPE":"PAYLOAD","SEMIMAJOR_AXIS":"6890.802","TLE_LINE2":"2 45758  53.0569   9.7616 0003968 122.3872 237.7506 15.17742506166156","EPHEMERIS_TYPE":"0","RA_OF_ASC_NODE":"9.7616","MEAN_MOTION":"15.17742506","CENTER_NAME":"EARTH","APOAPSIS":"515.401","SITE":"AFETR","CLASSIFICATION_TYPE":"U","ECCENTRICITY":"0.00039680","OBJECT_NAME":"STARLINK-1487","PERIOD":"94.878","INCLINATION":"53.0569","MEAN_MOTION_DOT":"0.00032154","OBJECT_ID":"2020-038AE","GP_ID":"234017854"},{"CLASSIFICATION_TYPE":"U","ECCENTRICITY":"0.00010520","OBJECT_NAME":"STARLINK-1493","PERIOD":"95.592","INCLINATION":"53.0550","MEAN_MOTION_DOT":"0.00010666","OBJECT_ID":"2020-038AF","GP_ID":"234017115","OBJECT_TYPE":"PAYLOAD","BSTAR":"0.00073373000000","SEMIMAJOR_AXIS":"6925.327","TLE_LINE2":"2 45759  53.0550  16.6286 0001052  71.2309 288.8794 15.06406912166057","EPHEMERIS_TYPE":"0","RA_OF_ASC_NODE":"16.6286","MEAN_MOTION":"15.06406912","CENTER_NAME":"EARTH","APOAPSIS":"547.921","SITE":"AFETR","LAUNCH_DATE":"2020-06-13","DECAY_DATE":null,"EPOCH":"2023-06-15T17:31:51.057120","FILE":"3934071","MEAN_ANOMALY":"288.8794","MEAN_ELEMENT_THEORY":"SGP4","COUNTRY_CODE":"US","NORAD_CAT_ID":"45759","RCS_SIZE":"LARGE","MEAN_MOTION_DDOT":"0.0000000000000","TIME_SYSTEM":"UTC","TLE_LINE1":"1 45759U 20038AF  23166.73045205  .00010666  00000-0  73373-3 0  9992","REF_FRAME":"TEME","ELEMENT_SET_NO":"999","ARG_OF_PERICENTER":"71.2309","PERIAPSIS":"546.464","REV_AT_EPOCH":"16605"},{"ARG_OF_PERICENTER":"73.6875","ELEMENT_SET_NO":"999","REV_AT_EPOCH":"16606","PERIAPSIS":"546.274","TIME_SYSTEM":"UTC","TLE_LINE1":"1 45760U 20038AG  23166.73413730  .00013721  00000-0  93805-3 0  9993","REF_FRAME":"TEME","COUNTRY_CODE":"US","NORAD_CAT_ID":"45760","MEAN_MOTION_DDOT":"0.0000000000000","RCS_SIZE":"LARGE","LAUNCH_DATE":"2020-06-13","DECAY_DATE":null,"FILE":"3934071","EPOCH":"2023-06-15T17:37:09.462720","MEAN_ANOMALY":"286.4259","MEAN_ELEMENT_THEORY":"SGP4","CENTER_NAME":"EARTH","APOAPSIS":"548.105","SITE":"AFETR","OBJECT_TYPE":"PAYLOAD","BSTAR":"0.00093805000000","SEMIMAJOR_AXIS":"6925.325","TLE_LINE2":"2 45760  53.0551  16.6187 0001322  73.6875 286.4259 15.06407700166061","EPHEMERIS_TYPE":"0","MEAN_MOTION":"15.06407700","RA_OF_ASC_NODE":"16.6187","PERIOD":"95.592","MEAN_MOTION_DOT":"0.00013721","INCLINATION":"53.0551","OBJECT_ID":"2020-038AG","GP_ID":"234017365","CLASSIFICATION_TYPE":"U","ECCENTRICITY":"0.00013220","OBJECT_NAME":"STARLINK-1494"},{"CENTER_NAME":"EARTH","APOAPSIS":"503.736","SITE":"AFETR","OBJECT_TYPE":"PAYLOAD","BSTAR":"0.00035335000000","SEMIMAJOR_AXIS":"6879.829","EPHEMERIS_TYPE":"0","TLE_LINE2":"2 45762  53.0608 356.5766 0002968  48.0228 312.1020 15.21374995166362","MEAN_MOTION":"15.21374995","RA_OF_ASC_NODE":"356.5766","PERIOD":"94.651","INCLINATION":"53.0608","MEAN_MOTION_DOT":"0.00007703","OBJECT_ID":"2020-038AJ","GP_ID":"234018114","CLASSIFICATION_TYPE":"U","ECCENTRICITY":"0.00029680","OBJECT_NAME":"STARLINK-1499","ARG_OF_PERICENTER":"48.0228","ELEMENT_SET_NO":"999","REV_AT_EPOCH":"16636","PERIAPSIS":"499.652","TIME_SYSTEM":"UTC","TLE_LINE1":"1 45762U 20038AJ  23166.82175693  .00007703  00000-0  35335-3 0  9995","REF_FRAME":"TEME","COUNTRY_CODE":"US","NORAD_CAT_ID":"45762","MEAN_MOTION_DDOT":"0.0000000000000","RCS_SIZE":"LARGE","DECAY_DATE":null,"LAUNCH_DATE":"2020-06-13","FILE":"3934071","EPOCH":"2023-06-15T19:43:19.798752","MEAN_ANOMALY":"312.1020","MEAN_ELEMENT_THEORY":"SGP4"}];
